[{"OBJECT_NAME":"HULIANWANG DIGUI-05","OBJECT_ID":"2024-240E","EPOCH":"2026-03-09T22:21:54.406080","MEAN_MOTION":13.2442144,"ECCENTRICITY":0.00021027,"INCLINATION":86.508,"RA_OF_ASC_NODE":16.8728,"ARG_OF_PERICENTER":82.1193,"MEAN_ANOMALY":278.0179,"EPHEMERIS_TYPE":0,"CLASSIFICATION_TYPE":"U","NORAD_CAT_ID":62327,"ELEMENT_SET_NO":999,"REV_AT_EPOCH":5950,"BSTAR":0.00010669148,"MEAN_MOTION_DOT":6.0e-7,"MEAN_MOTION_DDOT":0},{"OBJECT_NAME":"THOR ABLESTAR DEB","OBJECT_ID":"1961-015KT","EPOCH":"2026-03-09T09:05:11.257728","MEAN_MOTION":13.7637016,"ECCENTRICITY":0.02624904,"INCLINATION":66.447,"RA_OF_ASC_NODE":56.7221,"ARG_OF_PERICENTER":295.2461,"MEAN_ANOMALY":182.6431,"EPHEMERIS_TYPE":0,"CLASSIFICATION_TYPE":"U","NORAD_CAT_ID":13502,"ELEMENT_SET_NO":999,"REV_AT_EPOCH":13703,"BSTAR":0.005442911,"MEAN_MOTION_DOT":6.782e-5,"MEAN_MOTION_DDOT":0}]
